[{"OBJECT_NAME":"KUIPER-00044","OBJECT_ID":"2025-134F","EPOCH":"2026-03-05T07:02:12.856704","MEAN_MOTION":14.79895699,"ECCENTRICITY":0.00076379,"INCLINATION":51.9025,"RA_OF_ASC_NODE":266.0312,"ARG_OF_PERICENTER":258.2895,"MEAN_ANOMALY":101.7211,"EPHEMERIS_TYPE":0,"CLASSIFICATION_TYPE":"U","NORAD_CAT_ID":64505,"ELEMENT_SET_NO":999,"REV_AT_EPOCH":3923,"BSTAR":-0.0007198907,"MEAN_MOTION_DOT":-5.704e-5,"MEAN_MOTION_DDOT":0},{"OBJECT_NAME":"KUIPER-00046","OBJECT_ID":"2025-134G","EPOCH":"2026-03-04T19:47:44.816928","MEAN_MOTION":14.79921989,"ECCENTRICITY":8.563e-5,"INCLINATION":51.8983,"RA_OF_ASC_NODE":264.5647,"ARG_OF_PERICENTER":101.0614,"MEAN_ANOMALY":259.0445,"EPHEMERIS_TYPE":0,"CLASSIFICATION_TYPE":"U","NORAD_CAT_ID":64506,"ELEMENT_SET_NO":999,"REV_AT_EPOCH":3921,"BSTAR":6.8301346e-5,"MEAN_MOTION_DOT":2.99e-6,"MEAN_MOTION_DDOT":0},{"OBJECT_NAME":"KUIPER-00047","OBJECT_ID":"2025-134H","EPOCH":"2026-03-05T04:15:42.029856","MEAN_MOTION":14.77248366,"ECCENTRICITY":0.00025077,"INCLINATION":51.8974,"RA_OF_ASC_NODE":235.7134,"ARG_OF_PERICENTER":126.3776,"MEAN_ANOMALY":233.7417,"EPHEMERIS_TYPE":0,"CLASSIFICATION_TYPE":"U","NORAD_CAT_ID":64507,"ELEMENT_SET_NO":999,"REV_AT_EPOCH":3964,"BSTAR":0.00067296223,"MEAN_MOTION_DOT":4.601e-5,"MEAN_MOTION_DDOT":0},{"OBJECT_NAME":"KUIPER-00048","OBJECT_ID":"2025-134J","EPOCH":"2026-03-05T04:36:39.148992","MEAN_MOTION":14.79944584,"ECCENTRICITY":9.791e-5,"INCLINATION":51.8974,"RA_OF_ASC_NODE":235.4663,"ARG_OF_PERICENTER":109.7397,"MEAN_ANOMALY":250.3671,"EPHEMERIS_TYPE":0,"CLASSIFICATION_TYPE":"U","NORAD_CAT_ID":64508,"ELEMENT_SET_NO":999,"REV_AT_EPOCH":3965,"BSTAR":0.00074131118,"MEAN_MOTION_DOT":5.436e-5,"MEAN_MOTION_DDOT":0},{"OBJECT_NAME":"KUIPER-00049","OBJECT_ID":"2025-134K","EPOCH":"2026-03-05T00:00:02.000160","MEAN_MOTION":14.83284385,"ECCENTRICITY":0.0001681,"INCLINATION":51.8985,"RA_OF_ASC_NODE":249.6544,"ARG_OF_PERICENTER":118.8921,"MEAN_ANOMALY":90.3796,"EPHEMERIS_TYPE":0,"CLASSIFICATION_TYPE":"U","NORAD_CAT_ID":64509,"ELEMENT_SET_NO":999,"REV_AT_EPOCH":378,"BSTAR":0.0044866404,"MEAN_MOTION_DOT":0.00037041,"MEAN_MOTION_DDOT":0},{"OBJECT_NAME":"KUIPER-00050","OBJECT_ID":"2025-134L","EPOCH":"2026-03-04T21:16:39.924480","MEAN_MOTION":14.97203994,"ECCENTRICITY":0.00042396,"INCLINATION":51.8895,"RA_OF_ASC_NODE":233.7811,"ARG_OF_PERICENTER":302.7102,"MEAN_ANOMALY":57.3459,"EPHEMERIS_TYPE":0,"CLASSIFICATION_TYPE":"U","NORAD_CAT_ID":64510,"ELEMENT_SET_NO":999,"REV_AT_EPOCH":3965,"BSTAR":0.00089538843,"MEAN_MOTION_DOT":0.00010227,"MEAN_MOTION_DDOT":0},{"OBJECT_NAME":"KUIPER-00051","OBJECT_ID":"2025-134M","EPOCH":"2026-03-04T12:03:34.443936","MEAN_MOTION":14.83725619,"ECCENTRICITY":7.675e-5,"INCLINATION":51.9007,"RA_OF_ASC_NODE":248.8537,"ARG_OF_PERICENTER":94.8114,"MEAN_ANOMALY":265.2938,"EPHEMERIS_TYPE":0,"CLASSIFICATION_TYPE":"U","NORAD_CAT_ID":64511,"ELEMENT_SET_NO":999,"REV_AT_EPOCH":3940,"BSTAR":0.00078488518,"MEAN_MOTION_DOT":6.331e-5,"MEAN_MOTION_DDOT":0},{"OBJECT_NAME":"KUIPER-00053","OBJECT_ID":"2025-134P","EPOCH":"2026-03-05T04:25:01.880256","MEAN_MOTION":14.79921263,"ECCENTRICITY":9.503e-5,"INCLINATION":51.8996,"RA_OF_ASC_NODE":243.0189,"ARG_OF_PERICENTER":147.4965,"MEAN_ANOMALY":212.6056,"EPHEMERIS_TYPE":0,"CLASSIFICATION_TYPE":"U","NORAD_CAT_ID":64513,"ELEMENT_SET_NO":999,"REV_AT_EPOCH":3954,"BSTAR":0.00041725775,"MEAN_MOTION_DOT":2.96e-5,"MEAN_MOTION_DDOT":0},{"OBJECT_NAME":"KUIPER-00054","OBJECT_ID":"2025-134Q","EPOCH":"2026-03-05T04:33:09.630720","MEAN_MOTION":14.79941601,"ECCENTRICITY":3.012e-5,"INCLINATION":51.8981,"RA_OF_ASC_NODE":237.9656,"ARG_OF_PERICENTER":120.7296,"MEAN_ANOMALY":239.3696,"EPHEMERIS_TYPE":0,"CLASSIFICATION_TYPE":"U","NORAD_CAT_ID":64514,"ELEMENT_SET_NO":999,"REV_AT_EPOCH":3961,"BSTAR":0.00074038682,"MEAN_MOTION_DOT":5.429e-5,"MEAN_MOTION_DDOT":0},{"OBJECT_NAME":"KUIPER-00055","OBJECT_ID":"2025-134R","EPOCH":"2026-03-05T02:29:39.205536","MEAN_MOTION":15.20353816,"ECCENTRICITY":5.964e-5,"INCLINATION":51.8878,"RA_OF_ASC_NODE":201.3708,"ARG_OF_PERICENTER":346.5366,"MEAN_ANOMALY":13.5598,"EPHEMERIS_TYPE":0,"CLASSIFICATION_TYPE":"U","NORAD_CAT_ID":64515,"ELEMENT_SET_NO":999,"REV_AT_EPOCH":4012,"BSTAR":0.00095633144,"MEAN_MOTION_DOT":0.00020825,"MEAN_MOTION_DDOT":0},{"OBJECT_NAME":"KUIPER-00056","OBJECT_ID":"2025-134S","EPOCH":"2026-03-04T11:52:19.937280","MEAN_MOTION":14.83490045,"ECCENTRICITY":0.00010051,"INCLINATION":51.901,"RA_OF_ASC_NODE":246.288,"ARG_OF_PERICENTER":61.6749,"MEAN_ANOMALY":298.4316,"EPHEMERIS_TYPE":0,"CLASSIFICATION_TYPE":"U","NORAD_CAT_ID":64516,"ELEMENT_SET_NO":999,"REV_AT_EPOCH":3944,"BSTAR":0.00073978454,"MEAN_MOTION_DOT":5.919e-5,"MEAN_MOTION_DDOT":0},{"OBJECT_NAME":"KUIPER-00057","OBJECT_ID":"2025-134T","EPOCH":"2026-03-04T19:49:56.173440","MEAN_MOTION":14.83713888,"ECCENTRICITY":0.00040839,"INCLINATION":51.8977,"RA_OF_ASC_NODE":252.3096,"ARG_OF_PERICENTER":255.9281,"MEAN_ANOMALY":104.1229,"EPHEMERIS_TYPE":0,"CLASSIFICATION_TYPE":"U","NORAD_CAT_ID":64517,"ELEMENT_SET_NO":999,"REV_AT_EPOCH":3938,"BSTAR":0.00064427728,"MEAN_MOTION_DOT":5.153e-5,"MEAN_MOTION_DDOT":0},{"OBJECT_NAME":"KUIPER-00058","OBJECT_ID":"2025-134U","EPOCH":"2026-03-04T21:52:23.168928","MEAN_MOTION":14.79948858,"ECCENTRICITY":5.923e-5,"INCLINATION":51.9003,"RA_OF_ASC_NODE":246.6656,"ARG_OF_PERICENTER":111.6682,"MEAN_ANOMALY":248.4344,"EPHEMERIS_TYPE":0,"CLASSIFICATION_TYPE":"U","NORAD_CAT_ID":64518,"ELEMENT_SET_NO":999,"REV_AT_EPOCH":3947,"BSTAR":0.00067280199,"MEAN_MOTION_DOT":4.914e-5,"MEAN_MOTION_DDOT":0},{"OBJECT_NAME":"KUIPER-00059","OBJECT_ID":"2025-134V","EPOCH":"2026-03-04T18:45:28.888704","MEAN_MOTION":14.79914015,"ECCENTRICITY":0.00013083,"INCLINATION":51.8987,"RA_OF_ASC_NODE":242.2888,"ARG_OF_PERICENTER":140.0745,"MEAN_ANOMALY":220.0314,"EPHEMERIS_TYPE":0,"CLASSIFICATION_TYPE":"U","NORAD_CAT_ID":64519,"ELEMENT_SET_NO":999,"REV_AT_EPOCH":3952,"BSTAR":0.00071087691,"MEAN_MOTION_DOT":5.2e-5,"MEAN_MOTION_DDOT":0},{"OBJECT_NAME":"KUIPER-00060","OBJECT_ID":"2025-134W","EPOCH":"2026-03-04T11:52:36.179616","MEAN_MOTION":14.83553889,"ECCENTRICITY":0.00016451,"INCLINATION":51.9023,"RA_OF_ASC_NODE":243.7647,"ARG_OF_PERICENTER":66.9702,"MEAN_ANOMALY":293.1436,"EPHEMERIS_TYPE":0,"CLASSIFICATION_TYPE":"U","NORAD_CAT_ID":64520,"ELEMENT_SET_NO":999,"REV_AT_EPOCH":3946,"BSTAR":0.0007677286,"MEAN_MOTION_DOT":6.161e-5,"MEAN_MOTION_DDOT":0},{"OBJECT_NAME":"KUIPER-00061","OBJECT_ID":"2025-134X","EPOCH":"2026-03-04T21:48:14.451840","MEAN_MOTION":14.79902368,"ECCENTRICITY":0.00014373,"INCLINATION":51.8999,"RA_OF_ASC_NODE":249.2315,"ARG_OF_PERICENTER":100.6327,"MEAN_ANOMALY":259.4797,"EPHEMERIS_TYPE":0,"CLASSIFICATION_TYPE":"U","NORAD_CAT_ID":64521,"ELEMENT_SET_NO":999,"REV_AT_EPOCH":3942,"BSTAR":-3.4230308e-5,"MEAN_MOTION_DOT":-4.82e-6,"MEAN_MOTION_DDOT":0}]
