KUIPER-00044            
1 64505U 25134F   26064.29320436 -.00005704  00000+0 -71989-3 0  9996
2 64505  51.9025 266.0312 0007637 258.2895 101.7211 14.79895699 39233
KUIPER-00046            
1 64506U 25134G   26063.82482427  .00000299  00000+0  68301-4 0  9991
2 64506  51.8983 264.5647 0000856 101.0614 259.0445 14.79921989 39216
KUIPER-00047            
1 64507U 25134H   26064.17756979  .00004601  00000+0  67296-3 0  9999
2 64507  51.8974 235.7134 0002507 126.3776 233.7417 14.77248366 39646
KUIPER-00048            
1 64508U 25134J   26064.19211978  .00005436  00000+0  74131-3 0  9990
2 64508  51.8974 235.4663 0000979 109.7397 250.3671 14.79944584 39651
KUIPER-00049            
1 64509U 25134K   26064.00002315  .00037041  00000+0  44866-2 0  9992
2 64509  51.8985 249.6544 0001681 118.8921  90.3796 14.83284385  3780
KUIPER-00050            
1 64510U 25134L   26063.88657320  .00010227  00000+0  89539-3 0  9995
2 64510  51.8895 233.7811 0004239 302.7102  57.3459 14.97203994 39656
KUIPER-00051            
1 64511U 25134M   26063.50248199  .00006331  00000+0  78489-3 0  9998
2 64511  51.9007 248.8537 0000767  94.8114 265.2938 14.83725619 39402
KUIPER-00053            
1 64513U 25134P   26064.18404954  .00002960  00000+0  41726-3 0  9996
2 64513  51.8996 243.0189 0000950 147.4965 212.6056 14.79921263 39543
KUIPER-00054            
1 64514U 25134Q   26064.18969480  .00005429  00000+0  74039-3 0  9993
2 64514  51.8981 237.9656 0000301 120.7296 239.3696 14.79941601 39612
KUIPER-00055            
1 64515U 25134R   26064.10392599  .00020825  00000+0  95633-3 0  9997
2 64515  51.8878 201.3708 0000596 346.5366  13.5598 15.20353816 40126
KUIPER-00056            
1 64516U 25134S   26063.49467520  .00005919  00000+0  73978-3 0  9991
2 64516  51.9010 246.2880 0001005  61.6749 298.4316 14.83490045 39440
KUIPER-00057            
1 64517U 25134T   26063.82634460  .00005153  00000+0  64428-3 0  9998
2 64517  51.8977 252.3096 0004083 255.9281 104.1229 14.83713888 39389
KUIPER-00058            
1 64518U 25134U   26063.91137927  .00004914  00000+0  67280-3 0  9998
2 64518  51.9003 246.6656 0000592 111.6682 248.4344 14.79948858 39475
KUIPER-00059            
1 64519U 25134V   26063.78158436  .00005200  00000+0  71088-3 0  9992
2 64519  51.8987 242.2888 0001308 140.0745 220.0314 14.79914015 39524
KUIPER-00060            
1 64520U 25134W   26063.49486319  .00006161  00000+0  76773-3 0  9999
2 64520  51.9023 243.7647 0001645  66.9702 293.1436 14.83553889 39462
KUIPER-00061            
1 64521U 25134X   26063.90850060 -.00000482  00000+0 -34230-4 0  9999
2 64521  51.8999 249.2315 0001437 100.6327 259.4797 14.79902368 39421
